[{"OBJECT_NAME":"HAWK-2A","OBJECT_ID":"2021-006CW","EPOCH":"2026-03-09T16:18:25.817472","MEAN_MOTION":15.33304498,"ECCENTRICITY":0.00064498,"INCLINATION":97.2459,"RA_OF_ASC_NODE":115.6184,"ARG_OF_PERICENTER":187.1463,"MEAN_ANOMALY":172.9689,"EPHEMERIS_TYPE":0,"CLASSIFICATION_TYPE":"U","NORAD_CAT_ID":47505,"ELEMENT_SET_NO":999,"REV_AT_EPOCH":28424,"BSTAR":0.0002543136,"MEAN_MOTION_DOT":8.113e-5,"MEAN_MOTION_DDOT":0},{"OBJECT_NAME":"STARLINK-1992","OBJECT_ID":"2021-012N","EPOCH":"2026-03-09T23:22:12.273024","MEAN_MOTION":15.30176508,"ECCENTRICITY":0.00012876,"INCLINATION":53.1605,"RA_OF_ASC_NODE":331.0935,"ARG_OF_PERICENTER":90.4017,"MEAN_ANOMALY":269.7132,"EPHEMERIS_TYPE":0,"CLASSIFICATION_TYPE":"U","NORAD_CAT_ID":47632,"ELEMENT_SET_NO":999,"REV_AT_EPOCH":28140,"BSTAR":1.1821486e-5,"MEAN_MOTION_DOT":-9.0e-8,"MEAN_MOTION_DDOT":0}]
